ONEWEB-0271             
1 48989U 21060Y   25050.51415244  .00000104  00000+0  23886-3 0  9999
2 48989  87.9123 324.9650 0001966  85.6367 274.4989 13.16592466177445
ONEWEB-0272             
1 48990U 21060Z   25049.77635498 -.00000018  00000+0 -79569-4 0  9998
2 48990  87.9128 325.1429 0001910  84.8030 275.3318 13.16593138176000
ONEWEB-0273             
1 48991U 21060AA  25050.48249566 -.00000004  00000+0 -43544-4 0  9995
2 48991  87.9123 324.9880 0001968  78.8012 281.3340 13.16593260177379
ONEWEB-0274             
1 48992U 21060AB  25050.20383144  .00000228  00000+0  56395-3 0  9990
2 48992  87.9132 325.0736 0001586  93.4519 266.6794 13.16592064177373
ONEWEB-0275             
1 48993U 21060AC  25049.81275474 -.00001426  00000+0 -37649-2 0  9995
2 48993  87.9122 325.1155 0001846  82.8245 277.3095 13.16600862175957
ONEWEB-0276             
1 48994U 21060AD  25050.45399258  .00000092  00000+0  20692-3 0  9992
2 48994  87.9126 324.9846 0002039  79.3949 280.7411 13.16593892177353
ONEWEB-0277             
1 48995U 21060AE  25049.78268578  .00000005  00000+0 -21728-4 0  9994
2 48995  87.9125 325.1552 0002105  89.1858 270.9514 13.16593510175958
ONEWEB-0278             
1 48996U 21060AF  25050.22917024  .00000053  00000+0  10595-3 0  9994
2 48996  87.9128 325.0261 0001855  70.7614 289.3717 13.16593449177452
ONEWEB-0279             
1 48997U 21060AG  25050.46507858  .00000053  00000+0  10425-3 0  9993
2 48997  87.9126 324.9757 0001925  88.7412 271.3939 13.16593706177400
ONEWEB-0280             
1 48998U 21060AH  25050.48011303  .00000004  00000+0 -24408-4 0  9995
2 48998  87.9125 324.9778 0002117  76.4700 283.6667 13.16595711177335
ONEWEB-0281             
1 48999U 21060AJ  25049.72568745  .00000059  00000+0  12039-3 0  9993
2 48999  87.9124 325.1266 0001616  81.2575 278.8739 13.16592745176011
ONEWEB-0282             
1 49000U 21060AK  25050.21176038  .00000201  00000+0  49258-3 0  9995
2 49000  87.9127 325.0467 0002007  80.4405 279.6953 13.16598378177373
ONEWEB-0283             
1 49001U 21060AL  25050.50465409  .00000081  00000+0  17952-3 0  9993
2 49001  87.9121 324.9925 0001847  86.4690 273.6652 13.16592437177424
ONEWEB-0284             
1 49002U 21060AM  25050.49832232  .00000037  00000+0  63805-4 0  9994
2 49002  87.9115 324.9629 0001857  72.3919 287.7414 13.16592189177390
ONEWEB-0285             
1 49075U 21075A   25049.79290909  .00000224  00000+0  58705-3 0  9990
2 49075  87.8815  86.8956 0001935  93.6662 266.4688 13.12439585171804
ONEWEB-0286             
1 49076U 21075B   25049.84060649 -.00000061  00000+0 -20478-3 0  9990
2 49076  87.8813  86.8812 0001659  92.6233 267.5085 13.12444170171168
ONEWEB-0287             
1 49077U 21075C   25049.83294300  .00000064  00000+0  13143-3 0  9995
2 49077  87.9046 102.1607 0001558  89.0866 271.0444 13.17646826169974
ONEWEB-0288             
1 49078U 21075D   25050.51296173 -.00000362  00000+0 -10420-2 0  9990
2 49078  87.8809  86.7489 0001896  89.3941 270.7405 13.12441124172862
ONEWEB-0289             
1 49079U 21075E   25050.39316104 -.00000400  00000+0 -10632-2 0  9992
2 49079  87.9047 102.0800 0002580  85.7772 274.3655 13.17654552171592
ONEWEB-0290             
1 49080U 21075F   25050.37629384  .00000083  00000+0  18154-3 0  9992
2 49080  87.9043 102.0400 0002601  90.8221 269.3209 13.17651585171015
ONEWEB-0291             
1 49081U 21075G   25050.20923255  .00000048  00000+0  89380-4 0  9990
2 49081  87.9037 102.0826 0001885  90.3443 269.7905 13.17647038170996
ONEWEB-0293             
1 49082U 21075H   25050.53828843 -.00000062  00000+0 -19220-3 0  9997
2 49082  87.9041 102.0430 0002047  95.0002 265.1363 13.17651137171058
ONEWEB-0294             
1 49083U 21075J   25050.51946044 -.00000204  00000+0 -60229-3 0  9993
2 49083  87.8809  86.7472 0002206  81.7892 278.3486 13.12443004172252
ONEWEB-0295             
1 49084U 21075K   25050.53746273  .00000021  00000+0  20442-4 0  9997
2 49084  87.9046 102.0236 0001695  87.5650 272.5676 13.17649248170993
ONEWEB-0296             
1 49085U 21075L   25050.49998542 -.00000347  00000+0 -10006-2 0  9997
2 49085  87.8812  86.7567 0001794  74.6152 285.5175 13.12441603172252
ONEWEB-0297             
1 49086U 21075M   25049.61597780  .00000279  00000+0  74094-3 0  9999
2 49086  87.8823  86.9593 0001808  95.2088 264.9247 13.12443156171759
ONEWEB-0298             
1 49087U 21075N   25050.54180023 -.00000017  00000+0 -77112-4 0  9999
2 49087  87.9043 102.0395 0001702  99.1130 261.0194 13.17650570171056
ONEWEB-0299             
1 49088U 21075P   25050.54334956 -.00000038  00000+0 -13170-3 0  9992
2 49088  87.9036 101.9976 0001635  98.3677 261.7639 13.17646697171016
ONEWEB-0300             
1 49089U 21075Q   25050.52270066 -.00000120  00000+0 -36854-3 0  9998
2 49089  87.8811  86.7447 0001917 106.7855 253.3484 13.12442482172887
ONEWEB-0301             
1 49090U 21075R   25050.50648007 -.00000449  00000+0 -12828-2 0  9990
2 49090  87.8810  86.7528 0001955 105.1452 254.9893 13.12441983172242
ONEWEB-0302             
1 49091U 21075S   25050.56974324 -.00000147  00000+0 -44309-3 0  9996
2 49091  87.8812  86.7406 0002062  83.7053 276.4310 13.12440315172249
ONEWEB-0304             
1 49092U 21075T   25050.51804753  .00000056  00000+0  11114-3 0  9995
2 49092  87.9043 102.0286 0001770  94.0533 266.0801 13.17652076170992
ONEWEB-0305             
1 49093U 21075U   25050.20753607  .00000150  00000+0  35209-3 0  9999
2 49093  87.9040 102.0709 0001469  93.2924 266.8376 13.17651602170977
ONEWEB-0308             
1 49094U 21075V   25050.18206272  .00000008  00000+0 -13367-4 0  9993
2 49094  87.8813  86.8146 0001929  97.5041 262.6307 13.12439540172225
ONEWEB-0309             
1 49095U 21075W   25050.51467761 -.00000014  00000+0 -70174-4 0  9990
2 49095  87.9044 102.0222 0002236  86.9830 273.1557 13.17649911171008
ONEWEB-0310             
1 49096U 21075X   25049.81547473 -.00000333  00000+0 -96000-3 0  9990
2 49096  87.8822  86.9183 0001988  91.9982 268.1374 13.12442896171789
ONEWEB-0311             
1 49097U 21075Y   25050.21768170  .00000093  00000+0  20623-3 0  9995
2 49097  87.9044 102.0829 0001492  95.5134 264.6168 13.17650442171025
ONEWEB-0312             
1 49098U 21075Z   25050.53660037 -.00000272  00000+0 -73461-3 0  9993
2 49098  87.9042 102.0503 0001781  85.8631 274.2704 13.17648075171020
ONEWEB-0313             
1 49099U 21075AA  25050.54154341 -.00000052  00000+0 -16671-3 0  9997
2 49099  87.9043 102.0650 0001757  91.3507 268.7825 13.17650009171035
ONEWEB-0314             
1 49100U 21075AB  25050.50790559 -.00000031  00000+0 -11237-3 0  9993
2 49100  87.9040 102.0076 0001705  84.8224 275.3102 13.17654652170997
ONEWEB-0315             
1 49101U 21075AC  25050.55190034  .00000372  00000+0  99847-3 0  9990
2 49101  87.8809  86.7319 0001476  98.6858 261.4437 13.12440583172865
ONEWEB-0316             
1 49102U 21075AD  25049.75033359  .00000040  00000+0  68974-4 0  9997
2 49102  87.9051  71.6112 0001684  91.2309 268.9016 13.18687614173490
ONEWEB-0317             
1 49103U 21075AE  25050.54542458  .00000428  00000+0  11548-2 0  9995
2 49103  87.8814  86.7467 0002419  97.8360 262.3043 13.12442928172873
ONEWEB-0318             
1 49104U 21075AF  25049.74717103  .00000042  00000+0  72613-4 0  9991
2 49104  87.9048  71.5989 0001574  90.6684 269.4629 13.18687392173451
ONEWEB-0319             
1 49105U 21075AG  25050.21935025  .00000058  00000+0  11518-3 0  9994
2 49105  87.9044 102.1075 0001415  94.0512 266.0781 13.17651863170998
ONEWEB-0323             
1 49106U 21075AH  25050.53568412  .00000290  00000+0  77175-3 0  9991
2 49106  87.8812  86.7348 0001155  86.4816 273.6445 13.12442416172242
ONEWEB-0329             
1 49107U 21075AJ  25050.53153761 -.00000315  00000+0 -84514-3 0  9994
2 49107  87.9043 102.0497 0001726  93.1871 266.9458 13.17648806171016
ONEWEB-0330             
1 49108U 21075AK  25050.22949070  .00000032  00000+0  49448-4 0  9999
2 49108  87.9046 102.1120 0001915  90.2269 269.9082 13.17649388171015
ONEWEB-0292             
1 49186U 21083A   25050.50305221 -.00000331  00000+0 -94189-3 0  9994
2 49186  87.8888  56.2162 0001655  91.3257 268.8061 13.13469582168854
ONEWEB-0303             
1 49187U 21083B   25050.12339028  .00000073  00000+0  15277-3 0  9997
2 49187  87.9050  71.5256 0001658  92.8710 267.2611 13.18688062167599
ONEWEB-0306             
1 49188U 21083C   25050.49328691  .00000044  00000+0  78605-4 0  9995
2 49188  87.9048  71.4368 0002075  90.1442 269.9928 13.18683801167683
ONEWEB-0307             
1 49189U 21083D   25049.96425618 -.00000260  00000+0 -74692-3 0  9996
2 49189  87.8887  56.3267 0002162  84.5909 275.5467 13.13468977167496
ONEWEB-0320             
1 49190U 21083E   25050.57549524  .00000006  00000+0 -18746-4 0  9996
2 49190  87.9050  71.4480 0001878  90.7642 269.3705 13.18686568167659
ONEWEB-0321             
1 49191U 21083F   25050.17564005  .00000101  00000+0  21617-3 0  9999
2 49191  87.9302  10.5448 0002051  84.2719 275.8648 13.20771076174350
ONEWEB-0322             
1 49192U 21083G   25050.49353511 -.00000225  00000+0 -65164-3 0  9997
2 49192  87.8888  56.2103 0002269  90.8042 269.3348 13.13468870168846
ONEWEB-0324             
1 49193U 21083H   25050.48537442  .00000031  00000+0  46818-4 0  9993
2 49193  87.9050  71.4459 0001787  84.4612 275.6724 13.18687703167668
ONEWEB-0325             
1 49194U 21083J   25050.49013854  .00000079  00000+0  16846-3 0  9990
2 49194  87.9049  71.4617 0002003  92.9644 267.1717 13.18687062167671
ONEWEB-0326             
1 49195U 21083K   25049.82147500  .00000052  00000+0  99031-4 0  9991
2 49195  87.9047  71.5885 0001456  91.9738 268.1561 13.18686999166295
ONEWEB-0327             
1 49196U 21083L   25049.82067579  .00000013  00000+0  70799-6 0  9998
2 49196  87.9049  71.6155 0001555  96.6182 263.5127 13.18687088166314
